{
  "type": "FeatureCollection",
  "features": [
    {
      "type": "Feature",
      "properties": {
        "norad_id": 37846,
        "name": "GSAT0101 (GALILEO-PFM)",
        "group": "galileo",
        "lat": -19.213376342459966,
        "lon": -26.246758831733057,
        "alt_km": 23216.70830331539,
        "timestamp": "2025-12-12T20:43:07.297820+00:00",
        "meta_object_name": "GSAT0101 (GALILEO-PFM)",
        "meta_object_id": "2011-060A",
        "meta_epoch": "2025-12-08T19:04:30.018432",
        "meta_mean_motion": 1.70475601,
        "meta_eccentricity": 0.00029509,
        "meta_inclination": 57.0536,
        "meta_ra_of_asc_node": 346.9268,
        "meta_arg_of_pericenter": 313.0699,
        "meta_mean_anomaly": 46.9223,
        "meta_ephemeris_type": 0,
        "meta_classification_type": "U",
        "meta_norad_cat_id": 37846,
        "meta_element_set_no": 999,
        "meta_rev_at_epoch": 8787,
        "meta_bstar": 0,
        "meta_mean_motion_dot": -8.7e-07,
        "meta_mean_motion_ddot": 0,
        "tle_line1": "1 37846U 11060A   25342.79479188 -.00000087  00000+0  00000+0 0  9999",
        "tle_line2": "2 37846  57.0536 346.9268 0002950 313.0699  46.9223  1.70475601 87878"
      },
      "geometry": {
        "type": "Point",
        "coordinates": [
          -26.246758831733057,
          -19.213376342459966
        ]
      }
    },
    {
      "type": "Feature",
      "properties": {
        "norad_id": 37847,
        "name": "GSAT0102 (GALILEO-FM2)",
        "group": "galileo",
        "lat": 18.65766006949259,
        "lon": -0.5345871766035913,
        "alt_km": 23215.520027754137,
        "timestamp": "2025-12-12T20:43:07.297843+00:00",
        "meta_object_name": "GSAT0102 (GALILEO-FM2)",
        "meta_object_id": "2011-060B",
        "meta_epoch": "2025-12-12T05:47:25.345248",
        "meta_mean_motion": 1.70475905,
        "meta_eccentricity": 0.00049802,
        "meta_inclination": 57.0536,
        "meta_ra_of_asc_node": 346.8337,
        "meta_arg_of_pericenter": 309.4177,
        "meta_mean_anomaly": 51.2149,
        "meta_ephemeris_type": 0,
        "meta_classification_type": "U",
        "meta_norad_cat_id": 37847,
        "meta_element_set_no": 999,
        "meta_rev_at_epoch": 8794,
        "meta_bstar": 0,
        "meta_mean_motion_dot": -8.7e-07,
        "meta_mean_motion_ddot": 0,
        "tle_line1": "1 37847U 11060B   25346.24126557 -.00000087  00000+0  00000+0 0  9993",
        "tle_line2": "2 37847  57.0536 346.8337 0004980 309.4177  51.2149  1.70475905 87941"
      },
      "geometry": {
        "type": "Point",
        "coordinates": [
          -0.5345871766035913,
          18.65766006949259
        ]
      }
    },
    {
      "type": "Feature",
      "properties": {
        "norad_id": 38857,
        "name": "GSAT0103 (GALILEO-FM3)",
        "group": "galileo",
        "lat": -37.66695807990955,
        "lon": 74.87376337696237,
        "alt_km": 23221.288182548476,
        "timestamp": "2025-12-12T20:43:07.297858+00:00",
        "meta_object_name": "GSAT0103 (GALILEO-FM3)",
        "meta_object_id": "2012-055A",
        "meta_epoch": "2025-12-10T14:16:18.944544",
        "meta_mean_motion": 1.70473311,
        "meta_eccentricity": 0.00025926,
        "meta_inclination": 55.6913,
        "meta_ra_of_asc_node": 106.7254,
        "meta_arg_of_pericenter": 268.6178,
        "meta_mean_anomaly": 91.322,
        "meta_ephemeris_type": 0,
        "meta_classification_type": "U",
        "meta_norad_cat_id": 38857,
        "meta_element_set_no": 999,
        "meta_rev_at_epoch": 8179,
        "meta_bstar": 0,
        "meta_mean_motion_dot": 1.1e-07,
        "meta_mean_motion_ddot": 0,
        "tle_line1": "1 38857U 12055A   25344.59466371  .00000011  00000+0  00000+0 0  9993",
        "tle_line2": "2 38857  55.6913 106.7254 0002592 268.6178  91.3220  1.70473311 81792"
      },
      "geometry": {
        "type": "Point",
        "coordinates": [
          74.87376337696237,
          -37.66695807990955
        ]
      }
    },
    {
      "type": "Feature",
      "properties": {
        "norad_id": 40128,
        "name": "GSAT0201 (GALILEO 5)",
        "group": "galileo",
        "lat": -23.30618844682099,
        "lon": -100.87326300759972,
        "alt_km": 25679.95685515229,
        "timestamp": "2025-12-12T20:43:07.297872+00:00",
        "meta_object_name": "GSAT0201 (GALILEO 5)",
        "meta_object_id": "2014-050A",
        "meta_epoch": "2025-12-09T03:42:58.517280",
        "meta_mean_motion": 1.8551953,
        "meta_eccentricity": 0.164755,
        "meta_inclination": 49.0809,
        "meta_ra_of_asc_node": 281.2097,
        "meta_arg_of_pericenter": 172.1436,
        "meta_mean_anomaly": 190.8359,
        "meta_ephemeris_type": 0,
        "meta_classification_type": "U",
        "meta_norad_cat_id": 40128,
        "meta_element_set_no": 999,
        "meta_rev_at_epoch": 7479,
        "meta_bstar": 0,
        "meta_mean_motion_dot": -7.1e-07,
        "meta_mean_motion_ddot": 0,
        "tle_line1": "1 40128U 14050A   25343.15484395 -.00000071  00000+0  00000+0 0  9998",
        "tle_line2": "2 40128  49.0809 281.2097 1647550 172.1436 190.8359  1.85519530 74797"
      },
      "geometry": {
        "type": "Point",
        "coordinates": [
          -100.87326300759972,
          -23.30618844682099
        ]
      }
    },
    {
      "type": "Feature",
      "properties": {
        "norad_id": 40129,
        "name": "GSAT0202 (GALILEO 6)",
        "group": "galileo",
        "lat": 29.81325038676948,
        "lon": 70.3789889411091,
        "alt_km": 17562.45518263657,
        "timestamp": "2025-12-12T20:43:07.297883+00:00",
        "meta_object_name": "GSAT0202 (GALILEO 6)",
        "meta_object_id": "2014-050B",
        "meta_epoch": "2025-12-11T13:36:31.827456",
        "meta_mean_motion": 1.85520366,
        "meta_eccentricity": 0.16485158,
        "meta_inclination": 49.0938,
        "meta_ra_of_asc_node": 280.195,
        "meta_arg_of_pericenter": 172.988,
        "meta_mean_anomaly": 189.677,
        "meta_ephemeris_type": 0,
        "meta_classification_type": "U",
        "meta_norad_cat_id": 40129,
        "meta_element_set_no": 999,
        "meta_rev_at_epoch": 7700,
        "meta_bstar": 0,
        "meta_mean_motion_dot": -9.2e-07,
        "meta_mean_motion_ddot": 0,
        "tle_line1": "1 40129U 14050B   25345.56703504 -.00000092  00000+0  00000+0 0  9995",
        "tle_line2": "2 40129  49.0938 280.1950 1648515 172.9880 189.6770  1.85520366 77009"
      },
      "geometry": {
        "type": "Point",
        "coordinates": [
          70.3789889411091,
          29.81325038676948
        ]
      }
    },
    {
      "type": "Feature",
      "properties": {
        "norad_id": 40544,
        "name": "GSAT0203 (GALILEO 7)",
        "group": "galileo",
        "lat": 50.380544303915684,
        "lon": 114.52641361325159,
        "alt_km": 23234.069648809953,
        "timestamp": "2025-12-12T20:43:07.297895+00:00",
        "meta_object_name": "GSAT0203 (GALILEO 7)",
        "meta_object_id": "2015-017A",
        "meta_epoch": "2025-12-11T12:08:22.810848",
        "meta_mean_motion": 1.70475934,
        "meta_eccentricity": 0.00065093,
        "meta_inclination": 56.8465,
        "meta_ra_of_asc_node": 346.7135,
        "meta_arg_of_pericenter": 271.8959,
        "meta_mean_anomaly": 88.0466,
        "meta_ephemeris_type": 0,
        "meta_classification_type": "U",
        "meta_norad_cat_id": 40544,
        "meta_element_set_no": 999,
        "meta_rev_at_epoch": 6600,
        "meta_bstar": 0,
        "meta_mean_motion_dot": -8.8e-07,
        "meta_mean_motion_ddot": 0,
        "tle_line1": "1 40544U 15017A   25345.50581957 -.00000088  00000+0  00000+0 0  9995",
        "tle_line2": "2 40544  56.8465 346.7135 0006509 271.8959  88.0466  1.70475934 66007"
      },
      "geometry": {
        "type": "Point",
        "coordinates": [
          114.52641361325159,
          50.380544303915684
        ]
      }
    },
    {
      "type": "Feature",
      "properties": {
        "norad_id": 40545,
        "name": "GSAT0204 (GALILEO 8)",
        "group": "galileo",
        "lat": -35.32832662272075,
        "lon": -40.90022679187685,
        "alt_km": 23215.356162477587,
        "timestamp": "2025-12-12T20:43:07.297907+00:00",
        "meta_object_name": "GSAT0204 (GALILEO 8)",
        "meta_object_id": "2015-017B",
        "meta_epoch": "2025-12-11T04:11:34.346112",
        "meta_mean_motion": 1.70475574,
        "meta_eccentricity": 0.0006249,
        "meta_inclination": 56.853,
        "meta_ra_of_asc_node": 346.7403,
        "meta_arg_of_pericenter": 262.765,
        "meta_mean_anomaly": 97.1808,
        "meta_ephemeris_type": 0,
        "meta_classification_type": "U",
        "meta_norad_cat_id": 40545,
        "meta_element_set_no": 999,
        "meta_rev_at_epoch": 2904,
        "meta_bstar": 0,
        "meta_mean_motion_dot": -8.8e-07,
        "meta_mean_motion_ddot": 0,
        "tle_line1": "1 40545U 15017B   25345.17470308 -.00000088  00000+0  00000+0 0  9996",
        "tle_line2": "2 40545  56.8530 346.7403 0006249 262.7650  97.1808  1.70475574 29041"
      },
      "geometry": {
        "type": "Point",
        "coordinates": [
          -40.90022679187685,
          -35.32832662272075
        ]
      }
    }
  ]
}